{"type": "FeatureCollection", "features": [ {"type": "Feature", "properties": {"norad_id": 30160, "name": "FENGYUN 1C DEB", "group": "fengyun-1c-debris", "lat": -73.46900096868974, "lon": 86.52329962189202, "alt_km": 1288.498708838195, "timestamp": "2025-12-16T03:53:27.329952+00:00", "meta": {"OBJECT_NAME": "FENGYUN 1C DEB", "OBJECT_ID": "1999-025TR", "EPOCH": "2025-12-15T07:43:23.746368", "MEAN_MOTION": 13.4289324, "ECCENTRICITY": 0.03429176, "INCLINATION": 98.8863, "RA_OF_ASC_NODE": 297.5905, "ARG_OF_PERICENTER": 121.2964, "MEAN_ANOMALY": 31.6042, "EPHEMERIS_TYPE": 0, "CLASSIFICATION_TYPE": "U", "NORAD_CAT_ID": 30160, "ELEMENT_SET_NO": 999, "REV_AT_EPOCH": 92448, "BSTAR": 0.00089594257, "MEAN_MOTION_DOT": 6.89e-06, "MEAN_MOTION_DDOT": 0}, "tle": {"line1": "1 30160U 99025TR  25349.32180262  .00000689  00000+0  89594-3 0  9992", "line2": "2 30160  98.8863 297.5905 0342917 121.2964  31.6042 13.42893240924481"}}, "geometry": {"type": "Point", "coordinates": [86.52329962189202, -73.46900096868974]}}, {"type": "Feature", "properties": {"norad_id": 30161, "name": "FENGYUN 1C DEB", "group": "fengyun-1c-debris", "lat": -70.36653454476739, "lon": 126.40769010689976, "alt_km": 836.3799938964412, "timestamp": "2025-12-16T03:53:27.329963+00:00", "meta": {"OBJECT_NAME": "FENGYUN 1C DEB", "OBJECT_ID": "1999-025TS", "EPOCH": "2025-12-14T22:26:55.974912", "MEAN_MOTION": 13.49728316, "ECCENTRICITY": 0.03281147, "INCLINATION": 100.5056, "RA_OF_ASC_NODE": 336.4542, "ARG_OF_PERICENTER": 252.5872, "MEAN_ANOMALY": 162.6061, "EPHEMERIS_TYPE": 0, "CLASSIFICATION_TYPE": "U", "NORAD_CAT_ID": 30161, "ELEMENT_SET_NO": 999, "REV_AT_EPOCH": 92589, "BSTAR": 0.0017396004, "MEAN_MOTION_DOT": 1.487e-05, "MEAN_MOTION_DDOT": 0}, "tle": {"line1": "1 30161U 99025TS  25348.93537008  .00001487  00000+0  17396-2 0  9990", "line2": "2 30161 100.5056 336.4542 0328114 252.5872 162.6061 13.49728316925896"}}, "geometry": {"type": "Point", "coordinates": [126.40769010689976, -70.36653454476739]}}, {"type": "Feature", "properties": {"norad_id": 30162, "name": "FENGYUN 1C DEB", "group": "fengyun-1c-debris", "lat": 75.18189689678911, "lon": -94.6937899978174, "alt_km": 1165.376103697753, "timestamp": "2025-12-16T03:53:27.329973+00:00", "meta": {"OBJECT_NAME": "FENGYUN 1C DEB", "OBJECT_ID": "1999-025TT", "EPOCH": "2025-12-15T02:42:04.784832", "MEAN_MOTION": 13.53408718, "ECCENTRICITY": 0.03137092, "INCLINATION": 99.4889, "RA_OF_ASC_NODE": 45.0876, "ARG_OF_PERICENTER": 343.5714, "MEAN_ANOMALY": 43.5652, "EPHEMERIS_TYPE": 0, "CLASSIFICATION_TYPE": "U", "NORAD_CAT_ID": 30162, "ELEMENT_SET_NO": 999, "REV_AT_EPOCH": 92693, "BSTAR": 0.0023506053, "MEAN_MOTION_DOT": 2.112e-05, "MEAN_MOTION_DDOT": 0}, "tle": {"line1": "1 30162U 99025TT  25349.11255538  .00002112  00000+0  23506-2 0  9993", "line2": "2 30162  99.4889  45.0876 0313709 343.5714  43.5652 13.53408718926935"}}, "geometry": {"type": "Point", "coordinates": [-94.6937899978174, 75.18189689678911]}}, {"type": "Feature", "properties": {"norad_id": 30163, "name": "FENGYUN 1C DEB", "group": "fengyun-1c-debris", "lat": -64.2389039086581, "lon": 123.27145722953125, "alt_km": 1018.3669672912256, "timestamp": "2025-12-16T03:53:27.329984+00:00", "meta": {"OBJECT_NAME": "FENGYUN 1C DEB", "OBJECT_ID": "1999-025TU", "EPOCH": "2025-12-15T07:00:01.303200", "MEAN_MOTION": 13.38790293, "ECCENTRICITY": 0.03736745, "INCLINATION": 98.7004, "RA_OF_ASC_NODE": 104.0243, "ARG_OF_PERICENTER": 226.0673, "MEAN_ANOMALY": 191.3014, "EPHEMERIS_TYPE": 0, "CLASSIFICATION_TYPE": "U", "NORAD_CAT_ID": 30163, "ELEMENT_SET_NO": 999, "REV_AT_EPOCH": 91979, "BSTAR": 0.0019288558, "MEAN_MOTION_DOT": 1.509e-05, "MEAN_MOTION_DDOT": 0}, "tle": {"line1": "1 30163U 99025TU  25349.29168175  .00001509  00000+0  19289-2 0  9995", "line2": "2 30163  98.7004 104.0243 0373674 226.0673 191.3014 13.38790293919792"}}, "geometry": {"type": "Point", "coordinates": [123.27145722953125, -64.2389039086581]}}, {"type": "Feature", "properties": {"norad_id": 30167, "name": "FENGYUN 1C DEB", "group": "fengyun-1c-debris", "lat": 30.42314840793984, "lon": -99.13440238939425, "alt_km": 626.5444144368321, "timestamp": "2025-12-16T03:53:27.329994+00:00", "meta": {"OBJECT_NAME": "FENGYUN 1C DEB", "OBJECT_ID": "1999-025TY", "EPOCH": "2025-12-15T05:46:00.480576", "MEAN_MOTION": 14.48552193, "ECCENTRICITY": 0.01442269, "INCLINATION": 98.968, "RA_OF_ASC_NODE": 74.5661, "ARG_OF_PERICENTER": 147.0066, "MEAN_ANOMALY": 237.4806, "EPHEMERIS_TYPE": 0, "CLASSIFICATION_TYPE": "U", "NORAD_CAT_ID": 30167, "ELEMENT_SET_NO": 999, "REV_AT_EPOCH": 99395, "BSTAR": 0.00043067452, "MEAN_MOTION_DOT": 1.79e-05, "MEAN_MOTION_DDOT": 0}, "tle": {"line1": "1 30167U 99025TY  25349.24028334  .00001790  00000+0  43067-3 0  9990", "line2": "2 30167  98.9680  74.5661 0144226 147.0066 237.4806 14.48552193993958"}}, "geometry": {"type": "Point", "coordinates": [-99.13440238939425, 30.42314840793984]}}, {"type": "Feature", "properties": {"norad_id": 30168, "name": "FENGYUN 1C DEB", "group": "fengyun-1c-debris", "lat": -82.07212216716758, "lon": 130.88688415915385, "alt_km": 768.4531826501543, "timestamp": "2025-12-16T03:53:27.330005+00:00", "meta": {"OBJECT_NAME": "FENGYUN 1C DEB", "OBJECT_ID": "1999-025TZ", "EPOCH": "2025-12-15T03:30:21.428640", "MEAN_MOTION": 14.52916031, "ECCENTRICITY": 0.01005078, "INCLINATION": 97.3906, "RA_OF_ASC_NODE": 61.2332, "ARG_OF_PERICENTER": 146.5207, "MEAN_ANOMALY": 214.2399, "EPHEMERIS_TYPE": 0, "CLASSIFICATION_TYPE": "U", "NORAD_CAT_ID": 30168, "ELEMENT_SET_NO": 999, "REV_AT_EPOCH": 98346, "BSTAR": 0.0011860586, "MEAN_MOTION_DOT": 5.184e-05, "MEAN_MOTION_DDOT": 0}, "tle": {"line1": "1 30168U 99025TZ  25349.14608135  .00005184  00000+0  11861-2 0  9990", "line2": "2 30168  97.3906  61.2332 0100507 146.5207 214.2399 14.52916031983461"}}, "geometry": {"type": "Point", "coordinates": [130.88688415915385, -82.07212216716758]}}, {"type": "Feature", "properties": {"norad_id": 30169, "name": "FENGYUN 1C DEB", "group": "fengyun-1c-debris", "lat": 25.7685771661962, "lon": -116.30189345128343, "alt_km": 626.3282626784121, "timestamp": "2025-12-16T03:53:27.330016+00:00", "meta": {"OBJECT_NAME": "FENGYUN 1C DEB", "OBJECT_ID": "1999-025UA", "EPOCH": "2025-12-15T04:14:33.532800", "MEAN_MOTION": 14.58170277, "ECCENTRICITY": 0.0213117, "INCLINATION": 98.3367, "RA_OF_ASC_NODE": 58.6504, "ARG_OF_PERICENTER": 219.5216, "MEAN_ANOMALY": 166.9984, "EPHEMERIS_TYPE": 0, "CLASSIFICATION_TYPE": "U", "NORAD_CAT_ID": 30169, "ELEMENT_SET_NO": 999, "REV_AT_EPOCH": 97759, "BSTAR": 0.001662371, "MEAN_MOTION_DOT": 0.00010455, "MEAN_MOTION_DDOT": 0}, "tle": {"line1": "1 30169U 99025UA  25349.17677700  .00010455  00000+0  16624-2 0  9997", "line2": "2 30169  98.3367  58.6504 0213117 219.5216 166.9984 14.58170277977598"}}, "geometry": {"type": "Point", "coordinates": [-116.30189345128343, 25.7685771661962]}}, {"type": "Feature", "properties": {"norad_id": 30170, "name": "FENGYUN 1C DEB", "group": "fengyun-1c-debris", "lat": 7.966272872208935, "lon": 158.33426198421998, "alt_km": 897.2952271267523, "timestamp": "2025-12-16T03:53:27.330026+00:00", "meta": {"OBJECT_NAME": "FENGYUN 1C DEB", "OBJECT_ID": "1999-025UB", "EPOCH": "2025-12-14T22:13:28.327584", "MEAN_MOTION": 14.00310858, "ECCENTRICITY": 0.00769166, "INCLINATION": 98.8489, "RA_OF_ASC_NODE": 335.8889, "ARG_OF_PERICENTER": 268.5575, "MEAN_ANOMALY": 156.2495, "EPHEMERIS_TYPE": 0, "CLASSIFICATION_TYPE": "U", "NORAD_CAT_ID": 30170, "ELEMENT_SET_NO": 999, "REV_AT_EPOCH": 96446, "BSTAR": 0.00047463934, "MEAN_MOTION_DOT": 6.77e-06, "MEAN_MOTION_DDOT": 0}, "tle": {"line1": "1 30170U 99025UB  25348.92602231  .00000677  00000+0  47464-3 0  9990", "line2": "2 30170  98.8489 335.8889 0076916 268.5575 156.2495 14.00310858964461"}}, "geometry": {"type": "Point", "coordinates": [158.33426198421998, 7.966272872208935]}}, {"type": "Feature", "properties": {"norad_id": 30171, "name": "FENGYUN 1C DEB", "group": "fengyun-1c-debris", "lat": -5.751114070290289, "lon": -151.575123406188, "alt_km": 921.1103211710188, "timestamp": "2025-12-16T03:53:27.330036+00:00", "meta": {"OBJECT_NAME": "FENGYUN 1C DEB", "OBJECT_ID": "1999-025UC", "EPOCH": "2025-12-15T03:51:05.075424", "MEAN_MOTION": 13.96859853, "ECCENTRICITY": 0.01843767, "INCLINATION": 98.3979, "RA_OF_ASC_NODE": 206.6569, "ARG_OF_PERICENTER": 260.5807, "MEAN_ANOMALY": 97.4473, "EPHEMERIS_TYPE": 0, "CLASSIFICATION_TYPE": "U", "NORAD_CAT_ID": 30171, "ELEMENT_SET_NO": 999, "REV_AT_EPOCH": 96304, "BSTAR": 0.0002600592, "MEAN_MOTION_DOT": 3.77e-06, "MEAN_MOTION_DDOT": 0}, "tle": {"line1": "1 30171U 99025UC  25349.16047541  .00000377  00000+0  26006-3 0  9991", "line2": "2 30171  98.3979 206.6569 0184376 260.5807  97.4473 13.96859853963043"}}, "geometry": {"type": "Point", "coordinates": [-151.575123406188, -5.751114070290289]}}, {"type": "Feature", "properties": {"norad_id": 30172, "name": "FENGYUN 1C DEB", "group": "fengyun-1c-debris", "lat": -14.25011264628839, "lon": 146.96952265894518, "alt_km": 805.8410099150906, "timestamp": "2025-12-16T03:53:27.330047+00:00", "meta": {"OBJECT_NAME": "FENGYUN 1C DEB", "OBJECT_ID": "1999-025UD", "EPOCH": "2025-12-14T22:11:59.542944", "MEAN_MOTION": 14.12476872, "ECCENTRICITY": 0.00686336, "INCLINATION": 99.2343, "RA_OF_ASC_NODE": 328.0631, "ARG_OF_PERICENTER": 195.8656, "MEAN_ANOMALY": 191.1975, "EPHEMERIS_TYPE": 0, "CLASSIFICATION_TYPE": "U", "NORAD_CAT_ID": 30172, "ELEMENT_SET_NO": 999, "REV_AT_EPOCH": 96548, "BSTAR": 0.0010438007, "MEAN_MOTION_DOT": 1.924e-05, "MEAN_MOTION_DDOT": 0}, "tle": {"line1": "1 30172U 99025UD  25348.92499471  .00001924  00000+0  10438-2 0  9998", "line2": "2 30172  99.2343 328.0631 0068633 195.8656 191.1975 14.12476872965481"}}, "geometry": {"type": "Point", "coordinates": [146.96952265894518, -14.25011264628839]}}]}